{"type": "FeatureCollection", "features": [ {"type": "Feature", "properties": {"norad_id": 41836, "name": "HIMAWARI-9", "group": "weather", "lat": 0.027005379140936273, "lon": 44.001621852204394, "alt_km": 35783.70874795069, "timestamp": "2025-12-21T11:31:42.483221+00:00", "meta": {"OBJECT_NAME": "HIMAWARI-9", "OBJECT_ID": "2016-064A", "EPOCH": "2025-12-20T22:27:36.487872", "MEAN_MOTION": 1.00274149, "ECCENTRICITY": 0.0001516, "INCLINATION": 0.0171, "RA_OF_ASC_NODE": 9.6448, "ARG_OF_PERICENTER": 320.6837, "MEAN_ANOMALY": 237.0987, "EPHEMERIS_TYPE": 0, "CLASSIFICATION_TYPE": "U", "NORAD_CAT_ID": 41836, "ELEMENT_SET_NO": 999, "REV_AT_EPOCH": 3342, "BSTAR": 0, "MEAN_MOTION_DOT": 0, "MEAN_MOTION_DDOT": 0}, "tle": {"line1": "1 41836U 16064A   25354.93583898  .00000000  00000+0  00000+0 0  9999", "line2": "2 41836   0.0171   9.6448 0001516 320.6837 237.0987  1.00274149 33422"}}, "geometry": {"type": "Point", "coordinates": [44.001621852204394, 0.027005379140936273]}}, {"type": "Feature", "properties": {"norad_id": 41866, "name": "GOES 16", "group": "weather", "lat": 0.07023312500358729, "lon": 158.5168039396902, "alt_km": 35789.85674154456, "timestamp": "2025-12-21T11:31:42.483234+00:00", "meta": {"OBJECT_NAME": "GOES 16", "OBJECT_ID": "2016-071A", "EPOCH": "2025-12-21T02:25:41.042208", "MEAN_MOTION": 1.00272095, "ECCENTRICITY": 0.0003024, "INCLINATION": 0.0759, "RA_OF_ASC_NODE": 101.8423, "ARG_OF_PERICENTER": 164.1989, "MEAN_ANOMALY": 115.6369, "EPHEMERIS_TYPE": 0, "CLASSIFICATION_TYPE": "U", "NORAD_CAT_ID": 41866, "ELEMENT_SET_NO": 999, "REV_AT_EPOCH": 3331, "BSTAR": 0, "MEAN_MOTION_DOT": -6.8e-07, "MEAN_MOTION_DDOT": 0}, "tle": {"line1": "1 41866U 16071A   25355.10116947 -.00000068  00000+0  00000+0 0  9992", "line2": "2 41866   0.0759 101.8423 0003024 164.1989 115.6369  1.00272095 33311"}}, "geometry": {"type": "Point", "coordinates": [158.5168039396902, 0.07023312500358729]}}, {"type": "Feature", "properties": {"norad_id": 41882, "name": "FENGYUN 4A", "group": "weather", "lat": -1.5287613146393946, "lon": 26.959909987449368, "alt_km": 35806.0372738221, "timestamp": "2025-12-21T11:31:42.483246+00:00", "meta": {"OBJECT_NAME": "FENGYUN 4A", "OBJECT_ID": "2016-077A", "EPOCH": "2025-12-19T13:51:06.687072", "MEAN_MOTION": 1.00266581, "ECCENTRICITY": 0.0004506, "INCLINATION": 1.866, "RA_OF_ASC_NODE": 82.3247, "ARG_OF_PERICENTER": 142.8816, "MEAN_ANOMALY": 194.7423, "EPHEMERIS_TYPE": 0, "CLASSIFICATION_TYPE": "U", "NORAD_CAT_ID": 41882, "ELEMENT_SET_NO": 999, "REV_AT_EPOCH": 3312, "BSTAR": 0, "MEAN_MOTION_DOT": -3.34e-06, "MEAN_MOTION_DDOT": 0}, "tle": {"line1": "1 41882U 16077A   25353.57716073 -.00000334  00000+0  00000+0 0  9997", "line2": "2 41882   1.8660  82.3247 0004506 142.8816 194.7423  1.00266581 33125"}}, "geometry": {"type": "Point", "coordinates": [26.959909987449368, -1.5287613146393946]}}, {"type": "Feature", "properties": {"norad_id": 41884, "name": "CYGFM05", "group": "weather", "lat": -4.37451595519898, "lon": 176.30842283641678, "alt_km": 419.98453175435407, "timestamp": "2025-12-21T11:31:42.483258+00:00", "meta": {"OBJECT_NAME": "CYGFM05", "OBJECT_ID": "2016-078A", "EPOCH": "2025-12-21T02:58:55.174080", "MEAN_MOTION": 15.47924637, "ECCENTRICITY": 0.001082, "INCLINATION": 34.9605, "RA_OF_ASC_NODE": 352.3496, "ARG_OF_PERICENTER": 256.6713, "MEAN_ANOMALY": 103.2802, "EPHEMERIS_TYPE": 0, "CLASSIFICATION_TYPE": "U", "NORAD_CAT_ID": 41884, "ELEMENT_SET_NO": 999, "REV_AT_EPOCH": 50106, "BSTAR": 0.00026405, "MEAN_MOTION_DOT": 0.00014198, "MEAN_MOTION_DDOT": 0}, "tle": {"line1": "1 41884U 16078A   25355.12424970  .00014198  00000+0  26405-3 0  9998", "line2": "2 41884  34.9605 352.3496 0010820 256.6713 103.2802 15.47924637501063"}}, "geometry": {"type": "Point", "coordinates": [176.30842283641678, -4.37451595519898]}}, {"type": "Feature", "properties": {"norad_id": 41885, "name": "CYGFM04", "group": "weather", "lat": 14.64145933761029, "lon": 122.56563375170411, "alt_km": 415.75630428124714, "timestamp": "2025-12-21T11:31:42.483287+00:00", "meta": {"OBJECT_NAME": "CYGFM04", "OBJECT_ID": "2016-078B", "EPOCH": "2025-12-21T04:41:16.277856", "MEAN_MOTION": 15.50692603, "ECCENTRICITY": 0.0009662, "INCLINATION": 34.9356, "RA_OF_ASC_NODE": 326.4158, "ARG_OF_PERICENTER": 281.9389, "MEAN_ANOMALY": 78.025, "EPHEMERIS_TYPE": 0, "CLASSIFICATION_TYPE": "U", "NORAD_CAT_ID": 41885, "ELEMENT_SET_NO": 999, "REV_AT_EPOCH": 50125, "BSTAR": 0.00028538, "MEAN_MOTION_DOT": 0.00016929, "MEAN_MOTION_DDOT": 0}, "tle": {"line1": "1 41885U 16078B   25355.19532729  .00016929  00000+0  28538-3 0  9991", "line2": "2 41885  34.9356 326.4158 0009662 281.9389  78.0250 15.50692603501252"}}, "geometry": {"type": "Point", "coordinates": [122.56563375170411, 14.64145933761029]}}, {"type": "Feature", "properties": {"norad_id": 41886, "name": "CYGFM02", "group": "weather", "lat": -17.022565955700465, "lon": 168.76212596982546, "alt_km": 409.3339418655205, "timestamp": "2025-12-21T11:31:42.483300+00:00", "meta": {"OBJECT_NAME": "CYGFM02", "OBJECT_ID": "2016-078C", "EPOCH": "2025-12-21T02:54:21.140064", "MEAN_MOTION": 15.5209398, "ECCENTRICITY": 0.0011344, "INCLINATION": 34.9445, "RA_OF_ASC_NODE": 325.1195, "ARG_OF_PERICENTER": 281.9846, "MEAN_ANOMALY": 77.9605, "EPHEMERIS_TYPE": 0, "CLASSIFICATION_TYPE": "U", "NORAD_CAT_ID": 41886, "ELEMENT_SET_NO": 999, "REV_AT_EPOCH": 50137, "BSTAR": 0.00028818, "MEAN_MOTION_DOT": 0.00017995, "MEAN_MOTION_DDOT": 0}, "tle": {"line1": "1 41886U 16078C   25355.12107801  .00017995  00000+0  28818-3 0  9999", "line2": "2 41886  34.9445 325.1195 0011344 281.9846  77.9605 15.52093980501377"}}, "geometry": {"type": "Point", "coordinates": [168.76212596982546, -17.022565955700465]}}, {"type": "Feature", "properties": {"norad_id": 41887, "name": "CYGFM01", "group": "weather", "lat": -32.645699539398755, "lon": -121.12505564815581, "alt_km": 415.87108189482933, "timestamp": "2025-12-21T11:31:42.483311+00:00", "meta": {"OBJECT_NAME": "CYGFM01", "OBJECT_ID": "2016-078D", "EPOCH": "2025-12-21T02:42:56.693088", "MEAN_MOTION": 15.48512535, "ECCENTRICITY": 0.0010536, "INCLINATION": 34.9438, "RA_OF_ASC_NODE": 354.7121, "ARG_OF_PERICENTER": 248.9605, "MEAN_ANOMALY": 110.999, "EPHEMERIS_TYPE": 0, "CLASSIFICATION_TYPE": "U", "NORAD_CAT_ID": 41887, "ELEMENT_SET_NO": 999, "REV_AT_EPOCH": 50100, "BSTAR": 0.00027007, "MEAN_MOTION_DOT": 0.00014827, "MEAN_MOTION_DDOT": 0}, "tle": {"line1": "1 41887U 16078D   25355.11315617  .00014827  00000+0  27007-3 0  9995", "line2": "2 41887  34.9438 354.7121 0010536 248.9605 110.9990 15.48512535501007"}}, "geometry": {"type": "Point", "coordinates": [-121.12505564815581, -32.645699539398755]}}, {"type": "Feature", "properties": {"norad_id": 41888, "name": "CYGFM08", "group": "weather", "lat": -12.773772286065421, "lon": -43.745409000982825, "alt_km": 414.050290265036, "timestamp": "2025-12-21T11:31:42.483322+00:00", "meta": {"OBJECT_NAME": "CYGFM08", "OBJECT_ID": "2016-078E", "EPOCH": "2025-12-21T03:53:45.008736", "MEAN_MOTION": 15.49741243, "ECCENTRICITY": 0.001195, "INCLINATION": 34.9467, "RA_OF_ASC_NODE": 337.2835, "ARG_OF_PERICENTER": 272.0928, "MEAN_ANOMALY": 87.8426, "EPHEMERIS_TYPE": 0, "CLASSIFICATION_TYPE": "U", "NORAD_CAT_ID": 41888, "ELEMENT_SET_NO": 999, "REV_AT_EPOCH": 50124, "BSTAR": 0.00028214, "MEAN_MOTION_DOT": 0.00016193, "MEAN_MOTION_DDOT": 0}, "tle": {"line1": "1 41888U 16078E   25355.16232649  .00016193  00000+0  28214-3 0  9993", "line2": "2 41888  34.9467 337.2835 0011950 272.0928  87.8426 15.49741243501248"}}, "geometry": {"type": "Point", "coordinates": [-43.745409000982825, -12.773772286065421]}}, {"type": "Feature", "properties": {"norad_id": 41890, "name": "CYGFM07", "group": "weather", "lat": -9.368331570777341, "lon": -49.53443768065232, "alt_km": 411.72605668090455, "timestamp": "2025-12-21T11:31:42.483333+00:00", "meta": {"OBJECT_NAME": "CYGFM07", "OBJECT_ID": "2016-078G", "EPOCH": "2025-12-21T03:52:19.631712", "MEAN_MOTION": 15.503322, "ECCENTRICITY": 0.0010006, "INCLINATION": 34.9486, "RA_OF_ASC_NODE": 326.2227, "ARG_OF_PERICENTER": 286.7554, "MEAN_ANOMALY": 73.2071, "EPHEMERIS_TYPE": 0, "CLASSIFICATION_TYPE": "U", "NORAD_CAT_ID": 41890, "ELEMENT_SET_NO": 999, "REV_AT_EPOCH": 50126, "BSTAR": 0.00028515, "MEAN_MOTION_DOT": 0.00016701, "MEAN_MOTION_DDOT": 0}, "tle": {"line1": "1 41890U 16078G   25355.16133833  .00016701  00000+0  28515-3 0  9990", "line2": "2 41890  34.9486 326.2227 0010006 286.7554  73.2071 15.50332200501261"}}, "geometry": {"type": "Point", "coordinates": [-49.53443768065232, -9.368331570777341]}}, {"type": "Feature", "properties": {"norad_id": 41891, "name": "CYGFM03", "group": "weather", "lat": 2.905859518910068, "lon": 141.88549661433663, "alt_km": 415.974447650573, "timestamp": "2025-12-21T11:31:42.483344+00:00", "meta": {"OBJECT_NAME": "CYGFM03", "OBJECT_ID": "2016-078H", "EPOCH": "2025-12-21T03:02:58.110144", "MEAN_MOTION": 15.50226304, "ECCENTRICITY": 0.0009663, "INCLINATION": 34.9438, "RA_OF_ASC_NODE": 328.3716, "ARG_OF_PERICENTER": 274.2708, "MEAN_ANOMALY": 85.691, "EPHEMERIS_TYPE": 0, "CLASSIFICATION_TYPE": "U", "NORAD_CAT_ID": 41891, "ELEMENT_SET_NO": 999, "REV_AT_EPOCH": 50123, "BSTAR": 0.00027945, "MEAN_MOTION_DOT": 0.00016301, "MEAN_MOTION_DDOT": 0}, "tle": {"line1": "1 41891U 16078H   25355.12706146  .00016301  00000+0  27945-3 0  9992", "line2": "2 41891  34.9438 328.3716 0009663 274.2708  85.6910 15.50226304501238"}}, "geometry": {"type": "Point", "coordinates": [141.88549661433663, 2.905859518910068]}}]}